CCSDS_OMM_VERS = 2.0
CREATION_DATE  = 
ORIGINATOR     = 

OBJECT_NAME    = SL-14 R/B
OBJECT_ID      = 1986-046B
CENTER_NAME    = EARTH
REF_FRAME      = TEME
TIME_SYSTEM    = UTC
MEAN_ELEMENT_THEORY = SGP/SGP4

EPOCH          = 2026-02-03T06:05:34.035360
MEAN_MOTION    = 14.85555770
ECCENTRICITY   = .0022658
INCLINATION    = 82.4823
RA_OF_ASC_NODE = 112.7221
ARG_OF_PERICENTER = 345.5940
MEAN_ANOMALY   = 14.4627

EPHEMERIS_TYPE = 0
CLASSIFICATION_TYPE = U
NORAD_CAT_ID   = 16792
ELEMENT_SET_NO = 999
REV_AT_EPOCH   = 12129
BSTAR          = .57563E-4
MEAN_MOTION_DOT = .524E-5
MEAN_MOTION_DDOT = 0

CCSDS_OMM_VERS = 2.0
CREATION_DATE  = 
ORIGINATOR     = 

OBJECT_NAME    = SL-14 R/B
OBJECT_ID      = 1986-055B
CENTER_NAME    = EARTH
REF_FRAME      = TEME
TIME_SYSTEM    = UTC
MEAN_ELEMENT_THEORY = SGP/SGP4

EPOCH          = 2026-02-03T10:54:02.474784
MEAN_MOTION    = 14.85604336
ECCENTRICITY   = .0020409
INCLINATION    = 82.5230
RA_OF_ASC_NODE = 158.8411
ARG_OF_PERICENTER = 85.9928
MEAN_ANOMALY   = 343.5524

EPHEMERIS_TYPE = 0
CLASSIFICATION_TYPE = U
NORAD_CAT_ID   = 16882
ELEMENT_SET_NO = 999
REV_AT_EPOCH   = 11428
BSTAR          = .68684E-4
MEAN_MOTION_DOT = .621E-5
MEAN_MOTION_DDOT = 0

CCSDS_OMM_VERS = 2.0
CREATION_DATE  = 
ORIGINATOR     = 

OBJECT_NAME    = AJISAI (EGS)
OBJECT_ID      = 1986-061A
CENTER_NAME    = EARTH
REF_FRAME      = TEME
TIME_SYSTEM    = UTC
MEAN_ELEMENT_THEORY = SGP/SGP4

EPOCH          = 2026-02-03T11:59:24.072288
MEAN_MOTION    = 12.44515323
ECCENTRICITY   = .0011254
INCLINATION    = 50.0065
RA_OF_ASC_NODE = 198.4821
ARG_OF_PERICENTER = 199.0015
MEAN_ANOMALY   = 207.2462

EPHEMERIS_TYPE = 0
CLASSIFICATION_TYPE = U
NORAD_CAT_ID   = 16908
ELEMENT_SET_NO = 999
REV_AT_EPOCH   = 46374
BSTAR          = -.15253E-3
MEAN_MOTION_DOT = -.119E-5
MEAN_MOTION_DDOT = 0

CCSDS_OMM_VERS = 2.0
CREATION_DATE  = 
ORIGINATOR     = 

OBJECT_NAME    = COSMOS 1812
OBJECT_ID      = 1987-003A
CENTER_NAME    = EARTH
REF_FRAME      = TEME
TIME_SYSTEM    = UTC
MEAN_ELEMENT_THEORY = SGP/SGP4

EPOCH          = 2026-02-03T12:40:18.766272
MEAN_MOTION    = 15.92121744
ECCENTRICITY   = .0000708
INCLINATION    = 82.4776
RA_OF_ASC_NODE = 234.2573
ARG_OF_PERICENTER = 357.4057
MEAN_ANOMALY   = 2.7213

EPHEMERIS_TYPE = 0
CLASSIFICATION_TYPE = U
NORAD_CAT_ID   = 17295
ELEMENT_SET_NO = 999
REV_AT_EPOCH   = 13900
BSTAR          = .71065E-3
MEAN_MOTION_DOT = .235583E-2
MEAN_MOTION_DDOT = .19232E-4

CCSDS_OMM_VERS = 2.0
CREATION_DATE  = 
ORIGINATOR     = 

OBJECT_NAME    = SL-14 R/B
OBJECT_ID      = 1987-024B
CENTER_NAME    = EARTH
REF_FRAME      = TEME
TIME_SYSTEM    = UTC
MEAN_ELEMENT_THEORY = SGP/SGP4

EPOCH          = 2026-02-03T07:11:44.567232
MEAN_MOTION    = 14.86097464
ECCENTRICITY   = .0018667
INCLINATION    = 82.5297
RA_OF_ASC_NODE = 125.0833
ARG_OF_PERICENTER = 19.3456
MEAN_ANOMALY   = 340.8465

EPHEMERIS_TYPE = 0
CLASSIFICATION_TYPE = U
NORAD_CAT_ID   = 17567
ELEMENT_SET_NO = 999
REV_AT_EPOCH   = 8302
BSTAR          = .59897E-4
MEAN_MOTION_DOT = .55E-5
MEAN_MOTION_DDOT = 0

CCSDS_OMM_VERS = 2.0
CREATION_DATE  = 
ORIGINATOR     = 

OBJECT_NAME    = COSMOS 1833
OBJECT_ID      = 1987-027A
CENTER_NAME    = EARTH
REF_FRAME      = TEME
TIME_SYSTEM    = UTC
MEAN_ELEMENT_THEORY = SGP/SGP4

EPOCH          = 2026-02-03T10:57:27.721440
MEAN_MOTION    = 14.13055094
ECCENTRICITY   = .0024814
INCLINATION    = 70.9206
RA_OF_ASC_NODE = 37.9651
ARG_OF_PERICENTER = 260.1809
MEAN_ANOMALY   = 99.6510

EPHEMERIS_TYPE = 0
CLASSIFICATION_TYPE = U
NORAD_CAT_ID   = 17589
ELEMENT_SET_NO = 999
REV_AT_EPOCH   = 548
BSTAR          = .82504E-4
MEAN_MOTION_DOT = .106E-5
MEAN_MOTION_DDOT = 0

CCSDS_OMM_VERS = 2.0
CREATION_DATE  = 
ORIGINATOR     = 

OBJECT_NAME    = SL-16 R/B
OBJECT_ID      = 1987-027B
CENTER_NAME    = EARTH
REF_FRAME      = TEME
TIME_SYSTEM    = UTC
MEAN_ELEMENT_THEORY = SGP/SGP4

EPOCH          = 2026-02-03T07:37:21.821952
MEAN_MOTION    = 14.17163572
ECCENTRICITY   = .0005396
INCLINATION    = 71.0048
RA_OF_ASC_NODE = 348.9230
ARG_OF_PERICENTER = 200.3296
MEAN_ANOMALY   = 159.7613

EPHEMERIS_TYPE = 0
CLASSIFICATION_TYPE = U
NORAD_CAT_ID   = 17590
ELEMENT_SET_NO = 999
REV_AT_EPOCH   = 1047
BSTAR          = .51212E-4
MEAN_MOTION_DOT = .55E-6
MEAN_MOTION_DDOT = 0

CCSDS_OMM_VERS = 2.0
CREATION_DATE  = 
ORIGINATOR     = 

OBJECT_NAME    = SL-14 R/B
OBJECT_ID      = 1987-038B
CENTER_NAME    = EARTH
REF_FRAME      = TEME
TIME_SYSTEM    = UTC
MEAN_ELEMENT_THEORY = SGP/SGP4

EPOCH          = 2026-02-03T06:38:58.108416
MEAN_MOTION    = 14.85332806
ECCENTRICITY   = .0017692
INCLINATION    = 82.5043
RA_OF_ASC_NODE = 329.2167
ARG_OF_PERICENTER = 279.5676
MEAN_ANOMALY   = 80.3541

EPHEMERIS_TYPE = 0
CLASSIFICATION_TYPE = U
NORAD_CAT_ID   = 17912
ELEMENT_SET_NO = 999
REV_AT_EPOCH   = 7412
BSTAR          = .71424E-4
MEAN_MOTION_DOT = .639E-5
MEAN_MOTION_DDOT = 0

CCSDS_OMM_VERS = 2.0
CREATION_DATE  = 
ORIGINATOR     = 

OBJECT_NAME    = COSMOS 1844
OBJECT_ID      = 1987-041A
CENTER_NAME    = EARTH
REF_FRAME      = TEME
TIME_SYSTEM    = UTC
MEAN_ELEMENT_THEORY = SGP/SGP4

EPOCH          = 2026-02-03T10:58:22.823040
MEAN_MOTION    = 14.14536401
ECCENTRICITY   = .0028706
INCLINATION    = 70.8980
RA_OF_ASC_NODE = 106.3841
ARG_OF_PERICENTER = 72.9654
MEAN_ANOMALY   = 287.4609

EPHEMERIS_TYPE = 0
CLASSIFICATION_TYPE = U
NORAD_CAT_ID   = 17973
ELEMENT_SET_NO = 999
REV_AT_EPOCH   = 99874
BSTAR          = .13551E-3
MEAN_MOTION_DOT = .213E-5
MEAN_MOTION_DDOT = 0

CCSDS_OMM_VERS = 2.0
CREATION_DATE  = 
ORIGINATOR     = 

OBJECT_NAME    = SL-14 R/B
OBJECT_ID      = 1987-055B
CENTER_NAME    = EARTH
REF_FRAME      = TEME
TIME_SYSTEM    = UTC
MEAN_ELEMENT_THEORY = SGP/SGP4

EPOCH          = 2026-02-03T11:05:19.117248
MEAN_MOTION    = 14.85585656
ECCENTRICITY   = .0021978
INCLINATION    = 82.4988
RA_OF_ASC_NODE = 21.2869
ARG_OF_PERICENTER = 124.1876
MEAN_ANOMALY   = 236.1427

EPHEMERIS_TYPE = 0
CLASSIFICATION_TYPE = U
NORAD_CAT_ID   = 18153
ELEMENT_SET_NO = 999
REV_AT_EPOCH   = 6485
BSTAR          = .61317E-4
MEAN_MOTION_DOT = .557E-5
MEAN_MOTION_DDOT = 0

CCSDS_OMM_VERS = 2.0
CREATION_DATE  = 
ORIGINATOR     = 

OBJECT_NAME    = COSMOS 1867
OBJECT_ID      = 1987-060A
CENTER_NAME    = EARTH
REF_FRAME      = TEME
TIME_SYSTEM    = UTC
MEAN_ELEMENT_THEORY = SGP/SGP4

EPOCH          = 2026-02-03T10:02:49.229376
MEAN_MOTION    = 14.31497222
ECCENTRICITY   = .0014051
INCLINATION    = 65.0105
RA_OF_ASC_NODE = 42.6785
ARG_OF_PERICENTER = 276.0695
MEAN_ANOMALY   = 83.8788

EPHEMERIS_TYPE = 0
CLASSIFICATION_TYPE = U
NORAD_CAT_ID   = 18187
ELEMENT_SET_NO = 999
REV_AT_EPOCH   = 1503
BSTAR          = .29426E-4
MEAN_MOTION_DOT = -.22E-6
MEAN_MOTION_DDOT = 0

CCSDS_OMM_VERS = 2.0
CREATION_DATE  = 
ORIGINATOR     = 

OBJECT_NAME    = SL-14 R/B
OBJECT_ID      = 1988-001B
CENTER_NAME    = EARTH
REF_FRAME      = TEME
TIME_SYSTEM    = UTC
MEAN_ELEMENT_THEORY = SGP/SGP4

EPOCH          = 2026-02-03T12:32:11.713920
MEAN_MOTION    = 14.85486171
ECCENTRICITY   = .0017962
INCLINATION    = 82.5105
RA_OF_ASC_NODE = 227.4983
ARG_OF_PERICENTER = 356.3076
MEAN_ANOMALY   = 3.8005

EPHEMERIS_TYPE = 0
CLASSIFICATION_TYPE = U
NORAD_CAT_ID   = 18749
ELEMENT_SET_NO = 999
REV_AT_EPOCH   = 3695
BSTAR          = .53708E-4
MEAN_MOTION_DOT = .489E-5
MEAN_MOTION_DDOT = 0

