SL-14 R/B               
1 16792U 86046B   26034.25386615  .00000524  00000+0  57563-4 0  9990
2 16792  82.4823 112.7221 0022658 345.5940  14.4627 14.85555770121299
SL-14 R/B               
1 16882U 86055B   26034.45419531  .00000621  00000+0  68684-4 0  9990
2 16882  82.5230 158.8411 0020409  85.9928 343.5524 14.85604336114283
AJISAI (EGS)            
1 16908U 86061A   26034.49958417 -.00000119  00000+0 -15253-3 0  9998
2 16908  50.0065 198.4821 0011254 199.0015 207.2462 12.44515323463740
COSMOS 1812             
1 17295U 87003A   26034.52799498  .00235583  19232-4  71065-3 0  9999
2 17295  82.4776 234.2573 0000708 357.4057   2.7213 15.92121744139006
SL-14 R/B               
1 17567U 87024B   26034.29982138  .00000550  00000+0  59897-4 0  9995
2 17567  82.5297 125.0833 0018667  19.3456 340.8465 14.86097464 83021
COSMOS 1833             
1 17589U 87027A   26034.45657085  .00000106  00000+0  82504-4 0  9998
2 17589  70.9206  37.9651 0024814 260.1809  99.6510 14.13055094  5481
SL-16 R/B               
1 17590U 87027B   26034.31761368  .00000055  00000+0  51212-4 0  9990
2 17590  71.0048 348.9230 0005396 200.3296 159.7613 14.17163572 10479
SL-14 R/B               
1 17912U 87038B   26034.27706144  .00000639  00000+0  71424-4 0  9991
2 17912  82.5043 329.2167 0017692 279.5676  80.3541 14.85332806 74126
COSMOS 1844             
1 17973U 87041A   26034.45720860  .00000213  00000+0  13551-3 0  9997
2 17973  70.8980 106.3841 0028706  72.9654 287.4609 14.14536401998742
SL-14 R/B               
1 18153U 87055B   26034.46202682  .00000557  00000+0  61317-4 0  9996
2 18153  82.4988  21.2869 0021978 124.1876 236.1427 14.85585656 64854
COSMOS 1867             
1 18187U 87060A   26034.41862534 -.00000022  00000+0  29426-4 0  9995
2 18187  65.0105  42.6785 0014051 276.0695  83.8788 14.31497222 15038
SL-14 R/B               
1 18749U 88001B   26034.52235780  .00000489  00000+0  53708-4 0  9990
2 18749  82.5105 227.4983 0017962 356.3076   3.8005 14.85486171 36956
